{
  "type": "FeatureCollection",
  "features": [
    {
      "type": "Feature",
      "properties": {
        "norad_id": 43823,
        "name": "GEO-KOMPSAT-2A",
        "group": "weather",
        "lat": 0.03218852893609682,
        "lon": -145.8760795024595,
        "alt_km": 35787.39588762517,
        "timestamp": "2025-12-22T23:36:20.342318+00:00",
        "meta_object_name": "GEO-KOMPSAT-2A",
        "meta_object_id": "2018-100A",
        "meta_epoch": "2025-12-22T12:31:42.879648",
        "meta_mean_motion": 1.00270091,
        "meta_eccentricity": 3.785e-05,
        "meta_inclination": 0.0513,
        "meta_ra_of_asc_node": 127.1383,
        "meta_arg_of_pericenter": 328.0909,
        "meta_mean_anomaly": 312.2897,
        "meta_ephemeris_type": 0,
        "meta_classification_type": "U",
        "meta_norad_cat_id": 43823,
        "meta_element_set_no": 999,
        "meta_rev_at_epoch": 2585,
        "meta_bstar": 0,
        "meta_mean_motion_dot": -3.22e-06,
        "meta_mean_motion_ddot": 0,
        "tle_line1": "1 43823U 18100A   25356.52202407 -.00000322  00000+0  00000+0 0  9999",
        "tle_line2": "2 43823   0.0513 127.1383 0000378 328.0909 312.2897  1.00270091 25857"
      },
      "geometry": {
        "type": "Point",
        "coordinates": [
          -145.8760795024595,
          0.03218852893609682
        ]
      }
    },
    {
      "type": "Feature",
      "properties": {
        "norad_id": 44387,
        "name": "METEOR-M2 2",
        "group": "weather",
        "lat": -49.0168822870477,
        "lon": -12.774152234702635,
        "alt_km": 818.9194527275213,
        "timestamp": "2025-12-22T23:36:20.342328+00:00",
        "meta_object_name": "METEOR-M2 2",
        "meta_object_id": "2019-038A",
        "meta_epoch": "2025-12-22T20:28:02.149824",
        "meta_mean_motion": 14.2429573,
        "meta_eccentricity": 0.0001721,
        "meta_inclination": 98.8977,
        "meta_ra_of_asc_node": 336.7052,
        "meta_arg_of_pericenter": 128.9954,
        "meta_mean_anomaly": 231.1378,
        "meta_ephemeris_type": 0,
        "meta_classification_type": "U",
        "meta_norad_cat_id": 44387,
        "meta_element_set_no": 999,
        "meta_rev_at_epoch": 33619,
        "meta_bstar": 9.446e-05,
        "meta_mean_motion_dot": 1.72e-06,
        "meta_mean_motion_ddot": 0,
        "tle_line1": "1 44387U 19038A   25356.85280266  .00000172  00000+0  94460-4 0  9991",
        "tle_line2": "2 44387  98.8977 336.7052 0001721 128.9954 231.1378 14.24295730336195"
      },
      "geometry": {
        "type": "Point",
        "coordinates": [
          -12.774152234702635,
          -49.0168822870477
        ]
      }
    },
    {
      "type": "Feature",
      "properties": {
        "norad_id": 47719,
        "name": "ARKTIKA-M 1",
        "group": "weather",
        "lat": 22.802958926037924,
        "lon": -109.60746040186773,
        "alt_km": 11953.955762975798,
        "timestamp": "2025-12-22T23:36:20.342342+00:00",
        "meta_object_name": "ARKTIKA-M 1",
        "meta_object_id": "2021-016A",
        "meta_epoch": "2025-12-22T01:06:25.193952",
        "meta_mean_motion": 2.00630804,
        "meta_eccentricity": 0.72089477,
        "meta_inclination": 63.1758,
        "meta_ra_of_asc_node": 82.7279,
        "meta_arg_of_pericenter": 269.1606,
        "meta_mean_anomaly": 15.5458,
        "meta_ephemeris_type": 0,
        "meta_classification_type": "U",
        "meta_norad_cat_id": 47719,
        "meta_element_set_no": 999,
        "meta_rev_at_epoch": 3523,
        "meta_bstar": 0,
        "meta_mean_motion_dot": -8.3e-07,
        "meta_mean_motion_ddot": 0,
        "tle_line1": "1 47719U 21016A   25356.04612493 -.00000083  00000+0  00000+0 0  9998",
        "tle_line2": "2 47719  63.1758  82.7279 7208947 269.1606  15.5458  2.00630804 35236"
      },
      "geometry": {
        "type": "Point",
        "coordinates": [
          -109.60746040186773,
          22.802958926037924
        ]
      }
    },
    {
      "type": "Feature",
      "properties": {
        "norad_id": 49008,
        "name": "FENGYUN 3E",
        "group": "weather",
        "lat": 71.03067925327792,
        "lon": -156.00754246717605,
        "alt_km": 818.8911750733805,
        "timestamp": "2025-12-22T23:36:20.342354+00:00",
        "meta_object_name": "FENGYUN 3E",
        "meta_object_id": "2021-062A",
        "meta_epoch": "2025-12-22T14:38:52.567296",
        "meta_mean_motion": 14.19881195,
        "meta_eccentricity": 8.242e-05,
        "meta_inclination": 98.747,
        "meta_ra_of_asc_node": 357.0141,
        "meta_arg_of_pericenter": 200.6383,
        "meta_mean_anomaly": 159.476,
        "meta_ephemeris_type": 0,
        "meta_classification_type": "U",
        "meta_norad_cat_id": 49008,
        "meta_element_set_no": 999,
        "meta_rev_at_epoch": 23152,
        "meta_bstar": -1.3738443e-05,
        "meta_mean_motion_dot": -7.3e-07,
        "meta_mean_motion_ddot": 0,
        "tle_line1": "1 49008U 21062A   25356.61033064 -.00000073  00000+0 -13738-4 0  9993",
        "tle_line2": "2 49008  98.7470 357.0141 0000824 200.6383 159.4760 14.19881195231527"
      },
      "geometry": {
        "type": "Point",
        "coordinates": [
          -156.00754246717605,
          71.03067925327792
        ]
      }
    },
    {
      "type": "Feature",
      "properties": {
        "norad_id": 51850,
        "name": "GOES 18",
        "group": "weather",
        "lat": -0.010415042015104741,
        "lon": -51.141715459360945,
        "alt_km": 35785.084925483745,
        "timestamp": "2025-12-22T23:36:20.342369+00:00",
        "meta_object_name": "GOES 18",
        "meta_object_id": "2022-021A",
        "meta_epoch": "2025-12-22T11:42:38.740896",
        "meta_mean_motion": 1.00270635,
        "meta_eccentricity": 3.173e-05,
        "meta_inclination": 0.0066,
        "meta_ra_of_asc_node": 90.9101,
        "meta_arg_of_pericenter": 235.7783,
        "meta_mean_anomaly": 163.2679,
        "meta_ephemeris_type": 0,
        "meta_classification_type": "U",
        "meta_norad_cat_id": 51850,
        "meta_element_set_no": 999,
        "meta_rev_at_epoch": 482,
        "meta_bstar": 0,
        "meta_mean_motion_dot": 1.18e-06,
        "meta_mean_motion_ddot": 0,
        "tle_line1": "1 51850U 22021A   25356.48794839  .00000118  00000+0  00000+0 0  9997",
        "tle_line2": "2 51850   0.0066  90.9101 0000317 235.7783 163.2679  1.00270635  4821"
      },
      "geometry": {
        "type": "Point",
        "coordinates": [
          -51.141715459360945,
          -0.010415042015104741
        ]
      }
    },
    {
      "type": "Feature",
      "properties": {
        "norad_id": 54234,
        "name": "NOAA 21 (JPSS-2)",
        "group": "weather",
        "lat": 76.55768956123659,
        "lon": 153.26924385255194,
        "alt_km": 819.5499759009836,
        "timestamp": "2025-12-22T23:36:20.342380+00:00",
        "meta_object_name": "NOAA 21 (JPSS-2)",
        "meta_object_id": "2022-150A",
        "meta_epoch": "2025-12-22T12:59:07.580544",
        "meta_mean_motion": 14.19526653,
        "meta_eccentricity": 0.00017835,
        "meta_inclination": 98.7476,
        "meta_ra_of_asc_node": 292.7275,
        "meta_arg_of_pericenter": 18.3386,
        "meta_mean_anomaly": 341.7854,
        "meta_ephemeris_type": 0,
        "meta_classification_type": "U",
        "meta_norad_cat_id": 54234,
        "meta_element_set_no": 999,
        "meta_rev_at_epoch": 16148,
        "meta_bstar": 4.909944e-05,
        "meta_mean_motion_dot": 6e-07,
        "meta_mean_motion_ddot": 0,
        "tle_line1": "1 54234U 22150A   25356.54105996  .00000060  00000+0  49099-4 0  9998",
        "tle_line2": "2 54234  98.7476 292.7275 0001783  18.3386 341.7854 14.19526653161487"
      },
      "geometry": {
        "type": "Point",
        "coordinates": [
          153.26924385255194,
          76.55768956123659
        ]
      }
    },
    {
      "type": "Feature",
      "properties": {
        "norad_id": 54743,
        "name": "METEOSAT-12 (MTG-I1)",
        "group": "weather",
        "lat": 0.6300554908405002,
        "lon": 85.54008275367575,
        "alt_km": 35792.708469061785,
        "timestamp": "2025-12-22T23:36:20.342392+00:00",
        "meta_object_name": "METEOSAT-12 (MTG-I1)",
        "meta_object_id": "2022-170C",
        "meta_epoch": "2025-12-22T06:18:54.979776",
        "meta_mean_motion": 1.00270732,
        "meta_eccentricity": 0.00015211,
        "meta_inclination": 0.6966,
        "meta_ra_of_asc_node": 25.1701,
        "meta_arg_of_pericenter": 239.7344,
        "meta_mean_anomaly": 280.5813,
        "meta_ephemeris_type": 0,
        "meta_classification_type": "U",
        "meta_norad_cat_id": 54743,
        "meta_element_set_no": 999,
        "meta_rev_at_epoch": 1120,
        "meta_bstar": 0,
        "meta_mean_motion_dot": 1.4e-07,
        "meta_mean_motion_ddot": 0,
        "tle_line1": "1 54743U 22170C   25356.26313634  .00000014  00000+0  00000+0 0  9997",
        "tle_line2": "2 54743   0.6966  25.1701 0001521 239.7344 280.5813  1.00270732 11202"
      },
      "geometry": {
        "type": "Point",
        "coordinates": [
          85.54008275367575,
          0.6300554908405002
        ]
      }
    }
  ]
}